[{"OBJECT_NAME":"YAOGAN-9 01A","OBJECT_ID":"2010-009A","EPOCH":"2026-03-09T22:05:01.658976","MEAN_MOTION":13.45682363,"ECCENTRICITY":0.05290759,"INCLINATION":63.3639,"RA_OF_ASC_NODE":255.0721,"ARG_OF_PERICENTER":20.95,"MEAN_ANOMALY":341.2345,"EPHEMERIS_TYPE":0,"CLASSIFICATION_TYPE":"U","NORAD_CAT_ID":36413,"ELEMENT_SET_NO":999,"REV_AT_EPOCH":78661,"BSTAR":7.2534976e-5,"MEAN_MOTION_DOT":1.0e-7,"MEAN_MOTION_DDOT":0},{"OBJECT_NAME":"FENGYUN 1C DEB","OBJECT_ID":"1999-025DVG","EPOCH":"2026-03-07T05:09:45.580032","MEAN_MOTION":14.1205643,"ECCENTRICITY":0.0061961,"INCLINATION":98.7014,"RA_OF_ASC_NODE":43.5847,"ARG_OF_PERICENTER":92.1274,"MEAN_ANOMALY":268.6995,"EPHEMERIS_TYPE":0,"CLASSIFICATION_TYPE":"U","NORAD_CAT_ID":36231,"ELEMENT_SET_NO":999,"REV_AT_EPOCH":86735,"BSTAR":0.0001989,"MEAN_MOTION_DOT":3.29e-6,"MEAN_MOTION_DDOT":0}]
